ONEWEB-0133             
1 47279U 20100X   24189.38784181 -.00000050  00000+0 -17499-3 0  9995
2 47279  87.8950 132.0093 0002146  76.7286 283.4082 13.12441405171635
ONEWEB-0134             
1 47280U 20100Y   24189.81445581  .00000110  00000+0  26941-3 0  9990
2 47280  87.8949 131.9121 0002001  71.4515 288.6830 13.12443395171663
ONEWEB-0135             
1 47281U 20100Z   24189.32783146 -.00000308  00000+0 -89210-3 0  9998
2 47281  87.8954 132.0260 0002152  65.3605 294.7748 13.12443438171625
ONEWEB-0136             
1 47282U 20100AA  24189.88095304 -.00000143  00000+0 -43234-3 0  9995
2 47282  87.8954 131.8839 0001822  66.1384 293.9936 13.12442816171620
ONEWEB-0137             
1 47283U 20100AB  24189.38135722  .00000389  00000+0  10472-2 0  9997
2 47283  87.8949 132.0069 0001927  81.7118 278.4229 13.12440890171462
ONEWEB-0138             
1 47284U 20100AC  24189.81768248  .00000134  00000+0  33796-3 0  9994
2 47284  87.8950 131.9324 0001941  77.9676 282.1670 13.12442678171603
ONEWEB-0139             
1 47285U 20100AD  24189.85669547 -.00000221  00000+0 -65103-3 0  9997
2 47285  87.8955 131.8949 0002052  79.0392 281.0967 13.12439839171683
ONEWEB-0140             
1 47286U 20100AE  24189.88744134  .00000024  00000+0  32236-4 0  9998
2 47286  87.8950 131.8942 0001981  75.1634 284.9714 13.12443049171644
ONEWEB-0141             
1 47287U 20100AF  24189.39904427 -.00000792  00000+0 -22366-2 0  9993
2 47287  87.8950 132.0029 0002061  85.0433 275.0931 13.12439867171578
ONEWEB-0142             
1 47288U 20100AG  24189.90123262  .00000434  00000+0  11722-2 0  9996
2 47288  87.8951 131.8843 0001775  82.0766 278.0564 13.12442609171638
ONEWEB-0143             
1 47289U 20100AH  24189.32133251 -.00000204  00000+0 -60262-3 0  9993
2 47289  87.8952 132.0201 0002120  79.9754 280.1614 13.12440560171531
ONEWEB-0144             
1 47290U 20100AJ  24189.82743490  .00000405  00000+0  10913-2 0  9990
2 47290  87.8951 131.9031 0001669  77.9108 282.2208 13.12442739171520
ONEWEB-0145             
1 47291U 20100AK  24189.87446200 -.00000444  00000+0 -12707-2 0  9993
2 47291  87.8949 131.9174 0001934  78.9103 281.2243 13.12443036171728
ONEWEB-0146             
1 47292U 20100AL  24189.87121234 -.00000442  00000+0 -12645-2 0  9990
2 47292  87.8952 131.9020 0002475  80.7233 279.4175 13.12441382171634
ONEWEB-0147             
1 47293U 20100AM  24189.37973246  .00000360  00000+0  96402-3 0  9995
2 47293  87.8948 131.9929 0001991  70.1614 289.9729 13.12441241171462
ONEWEB-0115             
1 48042U 21025A   24189.80963302  .00000223  00000+0  57706-3 0  9997
2 48042  87.8923 101.4320 0002095  76.0049 284.1313 13.13468301160481
ONEWEB-0152             
1 48043U 21025B   24189.82234168  .00000340  00000+0  89603-3 0  9992
2 48043  87.8928 101.4280 0002069  75.9772 284.1587 13.13468752160443
ONEWEB-0153             
1 48044U 21025C   24189.26686164  .00000105  00000+0  25153-3 0  9997
2 48044  87.8930 101.5268 0001892  77.4363 282.6978 13.13468570160355
ONEWEB-0154             
1 48045U 21025D   24189.26368689  .00000019  00000+0  18398-4 0  9995
2 48045  87.8927 101.5383 0001975  75.3761 284.7587 13.13468576160312
ONEWEB-0116             
1 48046U 21025E   24190.14291605  .00000214  00000+0  54973-3 0  9993
2 48046  87.8932 101.3327 0002136  76.3259 283.8108 13.13468625160570
ONEWEB-0150             
1 48047U 21025F   24190.19368901  .00000709  00000+0  19051-2 0  9999
2 48047  87.8928 101.3398 0001886  77.3940 282.7400 13.13476962160478
ONEWEB-0107             
1 48048U 21025G   24189.81440393  .00000294  00000+0  76983-3 0  9990
2 48048  87.8925 101.4138 0001704  81.7009 278.4313 13.13469421160403
ONEWEB-0101             
1 48049U 21025H   24189.24465387 -.00000176  00000+0 -51761-3 0  9996
2 48049  87.8932 101.5447 0001920  74.1150 286.0191 13.13471482160307
ONEWEB-0113             
1 48050U 21025J   24189.83185948  .00000307  00000+0  80555-3 0  9992
2 48050  87.8932 101.4095 0002094  76.0000 284.1362 13.13468355160466
ONEWEB-0112             
1 48051U 21025K   24189.28592060  .00000443  00000+0  11779-2 0  9991
2 48051  87.8924 101.5167 0001983  79.8096 280.3256 13.13468948160403
ONEWEB-0156             
1 48052U 21025L   24189.82868319  .00000301  00000+0  78835-3 0  9995
2 48052  87.8929 101.4067 0001941  78.4478 281.6869 13.13468722160460
ONEWEB-0161             
1 48053U 21025M   24189.26845338 -.00000112  00000+0 -34167-3 0  9992
2 48053  87.8932 101.5257 0001779  75.0833 285.0493 13.13470633160313
ONEWEB-0158             
1 48054U 21025N   24189.76362263  .00000070  00000+0  15549-3 0  9993
2 48054  87.8930 101.4175 0002060  80.6515 279.4846 13.13469376160505
ONEWEB-0157             
1 48055U 21025P   24189.78740865 -.00000249  00000+0 -71809-3 0  9995
2 48055  87.8926 101.4274 0001806  81.5868 278.5466 13.13468199160453
ONEWEB-0162             
1 48056U 21025Q   24189.82709887  .00000339  00000+0  89376-3 0  9996
2 48056  87.8927 101.4151 0001946  79.3546 280.7802 13.13468483160402
ONEWEB-0155             
1 48057U 21025R   24190.15244313 -.00000014  00000+0 -73173-4 0  9994
2 48057  87.8928 101.3609 0001794  72.7020 287.4305 13.13470346160612
