OBJECT_NAME,OBJECT_ID,EPOCH,MEAN_MOTION,ECCENTRICITY,INCLINATION,RA_OF_ASC_NODE,ARG_OF_PERICENTER,MEAN_ANOMALY,EPHEMERIS_TYPE,CLASSIFICATION_TYPE,NORAD_CAT_ID,ELEMENT_SET_NO,REV_AT_EPOCH,BSTAR,MEAN_MOTION_DOT,MEAN_MOTION_DDOT
ONEWEB-0133,2020-100X,2024-07-07T09:18:29.532384,13.12441405,.0002146,87.8950,132.0093,76.7286,283.4082,0,U,47279,999,17163,-.17499E-3,-.5E-6,0
ONEWEB-0134,2020-100Y,2024-07-07T19:32:48.981984,13.12443395,.0002001,87.8949,131.9121,71.4515,288.6830,0,U,47280,999,17166,.26941E-3,.11E-5,0
ONEWEB-0135,2020-100Z,2024-07-07T07:52:04.638144,13.12443438,.0002152,87.8954,132.0260,65.3605,294.7748,0,U,47281,999,17162,-.8921E-3,-.308E-5,0
ONEWEB-0136,2020-100AA,2024-07-07T21:08:34.342656,13.12442816,.0001822,87.8954,131.8839,66.1384,293.9936,0,U,47282,999,17162,-.43234E-3,-.143E-5,0
ONEWEB-0137,2020-100AB,2024-07-07T09:09:09.263808,13.12440890,.0001927,87.8949,132.0069,81.7118,278.4229,0,U,47283,999,17146,.10472E-2,.389E-5,0
ONEWEB-0138,2020-100AC,2024-07-07T19:37:27.766272,13.12442678,.0001941,87.8950,131.9324,77.9676,282.1670,0,U,47284,999,17160,.33796E-3,.134E-5,0
ONEWEB-0139,2020-100AD,2024-07-07T20:33:38.488608,13.12439839,.0002052,87.8955,131.8949,79.0392,281.0967,0,U,47285,999,17168,-.65103E-3,-.221E-5,0
ONEWEB-0140,2020-100AE,2024-07-07T21:17:54.931776,13.12443049,.0001981,87.8950,131.8942,75.1634,284.9714,0,U,47286,999,17164,.32236E-4,.24E-6,0
ONEWEB-0141,2020-100AF,2024-07-07T09:34:37.424928,13.12439867,.0002061,87.8950,132.0029,85.0433,275.0931,0,U,47287,999,17157,-.22366E-2,-.792E-5,0
ONEWEB-0142,2020-100AG,2024-07-07T21:37:46.498368,13.12442609,.0001775,87.8951,131.8843,82.0766,278.0564,0,U,47288,999,17163,.11722E-2,.434E-5,0
ONEWEB-0143,2020-100AH,2024-07-07T07:42:43.128864,13.12440560,.000212,87.8952,132.0201,79.9754,280.1614,0,U,47289,999,17153,-.60262E-3,-.204E-5,0
ONEWEB-0144,2020-100AJ,2024-07-07T19:51:30.375360,13.12442739,.0001669,87.8951,131.9031,77.9108,282.2208,0,U,47290,999,17152,.10913E-2,.405E-5,0
ONEWEB-0145,2020-100AK,2024-07-07T20:59:13.516800,13.12443036,.0001934,87.8949,131.9174,78.9103,281.2243,0,U,47291,999,17172,-.12707E-2,-.444E-5,0
ONEWEB-0146,2020-100AL,2024-07-07T20:54:32.746176,13.12441382,.0002475,87.8952,131.9020,80.7233,279.4175,0,U,47292,999,17163,-.12645E-2,-.442E-5,0
ONEWEB-0147,2020-100AM,2024-07-07T09:06:48.884544,13.12441241,.0001991,87.8948,131.9929,70.1614,289.9729,0,U,47293,999,17146,.96402E-3,.36E-5,0
ONEWEB-0115,2021-025A,2024-07-07T19:25:52.292928,13.13468301,.0002095,87.8923,101.4320,76.0049,284.1313,0,U,48042,999,16048,.57706E-3,.223E-5,0
ONEWEB-0152,2021-025B,2024-07-07T19:44:10.321152,13.13468752,.0002069,87.8928,101.4280,75.9772,284.1587,0,U,48043,999,16044,.89603E-3,.34E-5,0
ONEWEB-0153,2021-025C,2024-07-07T06:24:16.845696,13.13468570,.0001892,87.8930,101.5268,77.4363,282.6978,0,U,48044,999,16035,.25153E-3,.105E-5,0
ONEWEB-0154,2021-025D,2024-07-07T06:19:42.547296,13.13468576,.0001975,87.8927,101.5383,75.3761,284.7587,0,U,48045,999,16031,.18398E-4,.19E-6,0
ONEWEB-0116,2021-025E,2024-07-08T03:25:47.946720,13.13468625,.0002136,87.8932,101.3327,76.3259,283.8108,0,U,48046,999,16057,.54973E-3,.214E-5,0
ONEWEB-0150,2021-025F,2024-07-08T04:38:54.730464,13.13476962,.0001886,87.8928,101.3398,77.3940,282.7400,0,U,48047,999,16047,.19051E-2,.709E-5,0
ONEWEB-0107,2021-025G,2024-07-07T19:32:44.499552,13.13469421,.0001704,87.8925,101.4138,81.7009,278.4313,0,U,48048,999,16040,.76983E-3,.294E-5,0
ONEWEB-0101,2021-025H,2024-07-07T05:52:18.094368,13.13471482,.000192,87.8932,101.5447,74.1150,286.0191,0,U,48049,999,16030,-.51761E-3,-.176E-5,0
ONEWEB-0113,2021-025J,2024-07-07T19:57:52.659072,13.13468355,.0002094,87.8932,101.4095,76.0000,284.1362,0,U,48050,999,16046,.80555E-3,.307E-5,0
ONEWEB-0112,2021-025K,2024-07-07T06:51:43.539840,13.13468948,.0001983,87.8924,101.5167,79.8096,280.3256,0,U,48051,999,16040,.11779E-2,.443E-5,0
ONEWEB-0156,2021-025L,2024-07-07T19:53:18.227616,13.13468722,.0001941,87.8929,101.4067,78.4478,281.6869,0,U,48052,999,16046,.78835E-3,.301E-5,0
ONEWEB-0161,2021-025M,2024-07-07T06:26:34.372032,13.13470633,.0001779,87.8932,101.5257,75.0833,285.0493,0,U,48053,999,16031,-.34167E-3,-.112E-5,0
ONEWEB-0158,2021-025N,2024-07-07T18:19:36.995232,13.13469376,.000206,87.8930,101.4175,80.6515,279.4846,0,U,48054,999,16050,.15549E-3,.7E-6,0
ONEWEB-0157,2021-025P,2024-07-07T18:53:52.107360,13.13468199,.0001806,87.8926,101.4274,81.5868,278.5466,0,U,48055,999,16045,-.71809E-3,-.249E-5,0
ONEWEB-0162,2021-025Q,2024-07-07T19:51:01.342368,13.13468483,.0001946,87.8927,101.4151,79.3546,280.7802,0,U,48056,999,16040,.89376E-3,.339E-5,0
ONEWEB-0155,2021-025R,2024-07-08T03:39:31.086432,13.13470346,.0001794,87.8928,101.3609,72.7020,287.4305,0,U,48057,999,16061,-.73173E-4,-.14E-6,0
